STARLINK-37472          
1 69172U 26111AA  26154.91668981 -.00010888  00000+0 -51704-4 0  9999
2 69172  53.1594 217.9300 0000533  68.3748 323.5572 15.80871609  3413
STARLINK-37461          
1 69173U 26111AB  26154.91668981  .00061659  00000+0  31423-3 0  9995
2 69173  53.1590 217.9769 0000940  84.0026 285.4632 15.80836392  3418
STARLINK-37333          
1 69174U 26111AC  26154.91668981 -.00622694  00000+0 -33496-2 0  9991
2 69174  53.1594 217.9659 0000933  83.3541 291.4445 15.81097166  3415
STARLINK-37385          
1 69175U 26111AD  26154.91668981  .00011657  00000+0  62563-4 0  9990
2 69175  53.1620 217.9639 0001124  86.1906 289.4964 15.80857150  3412
STARLINK-37414          
1 69176U 26111AE  26154.91668981 -.00106201  00000+0 -53884-3 0  9998
2 69176  53.1623 217.9479 0001237  20.1711   3.1364 15.80964619  3419
STRIX-7                 
1 69177U 26112A   26154.86517075  .00004377  00000+0  35017-3 0  9998
2 69177  44.9072 262.4155 0024516 332.5779  27.3798 15.01352671  1870
SHENZHOU-23 (SZ-23)     
1 69180U 26113A   26154.92149794  .00024659  00000+0  29647-3 0  9996
2 69180  41.4695  42.7005 0009798 337.2037  22.8366 15.60222099291253
STARLINK-37380          
1 69182U 26114A   26154.91668981 -.01917943  00000+0 -94449-2 0  9993
2 69182  53.1583 268.7751 0000880  66.8134 259.1607 15.84357941  2675
STARLINK-37089          
1 69183U 26114B   26154.91668981 -.01942833  00000+0 -94459-2 0  9991
2 69183  53.1584 268.7669 0000867  55.9833 273.8761 15.84661795  2674
STARLINK-37428          
1 69184U 26114C   26154.91668981 -.01898369  00000+0 -89051-2 0  9998
2 69184  53.1581 268.7595 0000802  53.7155 279.9024 15.85325772  2674
STARLINK-37237          
1 69185U 26114D   26154.91668981 -.00510725  00000+0 -22218-2 0  9997
2 69185  53.1579 268.7511 0000968  53.1697 284.2121 15.85292790  2678
STARLINK-37365          
1 69186U 26114E   26154.91668981 -.00842429  00000+0 -37600-2 0  9998
2 69186  53.1578 268.7435 0000969  45.6824 295.4555 15.85548419  2679
STARLINK-37209          
1 69187U 26114F   26154.91668981 -.01797360  00000+0 -82532-2 0  9997
2 69187  53.1578 268.7342 0000792  51.3699 294.1934 15.86108432  2670
STARLINK-37359          
1 69188U 26114G   26154.91668981 -.01933487  00000+0 -87648-2 0  9993
2 69188  53.1579 268.7262 0000826  45.1287 304.2848 15.86077293  2672
STARLINK-37440          
1 69189U 26114H   26154.91668981 -.01487516  63473-3 -42281-2 0  9992
2 69189  53.1568 268.5113 0001185  54.8918  37.8249 15.92734991  2677
STARLINK-37282          
1 69190U 26114J   26154.91668981 -.01703229  00000+0 -79070-2 0  9995
2 69190  53.1581 268.7055 0000787  60.1558 299.1915 15.85706162  2672
STARLINK-37422          
1 69191U 26114K   26154.91668981 -.01347177  00000+0 -56280-2 0  9990
2 69191  53.1578 268.7097 0001058  39.6052 317.9388 15.87611227  2679
STARLINK-37424          
1 69192U 26114L   26154.91668981 -.01701901  00000+0 -78427-2 0  9997
2 69192  53.1578 268.6983 0000916  62.0487 300.8850 15.85852095  2670
STARLINK-36666          
1 69193U 26114M   26154.91668981 -.01703198  00000+0 -77929-2 0  9994
2 69193  53.1578 268.6908 0000907  62.0491 304.4523 15.85999422  2676
STARLINK-37355          
1 69194U 26114N   26154.91668981 -.01701167  00000+0 -77281-2 0  9990
2 69194  53.1579 268.6837 0000781  62.7103 307.3378 15.86142322  2676
STARLINK-37166          
1 69195U 26114P   26154.91668981 -.01706078  00000+0 -76533-2 0  9996
2 69195  53.1576 268.6684 0000952  62.1624 315.1481 15.86404176  2676
STARLINK-36933          
1 69196U 26114Q   26154.91668981 -.01704037  00000+0 -76924-2 0  9994
2 69196  53.1575 268.6762 0000921  64.3010 309.3968 15.86273531  2676
STARLINK-37419          
1 69197U 26114R   26154.91668981 -.01707087  00000+0 -76118-2 0  9998
2 69197  53.1577 268.6608 0000806  60.3862 320.5502 15.86529515  2676
STARLINK-37321          
1 69198U 26114S   26154.91668981 -.01704469  00000+0 -75421-2 0  9996
2 69198  53.1575 268.6540 0000802  60.9157 323.4593 15.86678875  2675
STARLINK-37406          
1 69199U 26114T   26154.91668981 -.01707252  00000+0 -75036-2 0  9992
2 69199  53.1574 268.6468 0001060  40.2480 347.6715 15.86816528  2674
STARLINK-37761          
1 69200U 26114U   26154.91668981 -.01707479  00000+0 -74537-2 0  9991
2 69200  53.1576 268.6394 0000854  64.6005 326.7836 15.86956294  2677
