OBJECT_NAME,OBJECT_ID,EPOCH,MEAN_MOTION,ECCENTRICITY,INCLINATION,RA_OF_ASC_NODE,ARG_OF_PERICENTER,MEAN_ANOMALY,EPHEMERIS_TYPE,CLASSIFICATION_TYPE,NORAD_CAT_ID,ELEMENT_SET_NO,REV_AT_EPOCH,BSTAR,MEAN_MOTION_DOT,MEAN_MOTION_DDOT
STARLINK-37472,2026-111AA,2026-06-03T22:00:01.999584,15.80871609,.00005338,53.1594,217.9300,68.3748,323.5572,0,U,69172,999,341,-.51704273E-4,-.10888E-3,0
STARLINK-37461,2026-111AB,2026-06-03T22:00:01.999584,15.80836392,.00009402,53.1590,217.9769,84.0026,285.4632,0,U,69173,999,341,.31423038E-3,.61659E-3,0
STARLINK-37333,2026-111AC,2026-06-03T22:00:01.999584,15.81097166,.0000933,53.1594,217.9659,83.3541,291.4445,0,U,69174,999,341,-.33496336E-2,-.622694E-2,0
STARLINK-37385,2026-111AD,2026-06-03T22:00:01.999584,15.80857150,.00011246,53.1620,217.9639,86.1906,289.4964,0,U,69175,999,341,.62562707E-4,.11657E-3,0
STARLINK-37414,2026-111AE,2026-06-03T22:00:01.999584,15.80964619,.00012376,53.1623,217.9479,20.1711,3.1364,0,U,69176,999,341,-.53884473E-3,-.106201E-2,0
STRIX-7,2026-112A,2026-06-03T20:45:50.752800,15.01352671,.00245165,44.9072,262.4155,332.5779,27.3798,0,U,69177,999,187,.35017457E-3,.4377E-4,0
SHENZHOU-23 (SZ-23),2026-113A,2026-06-03T22:06:57.422016,15.60222099,.00097988,41.4695,42.7005,337.2037,22.8366,0,U,69180,999,29125,.29646921E-3,.24659E-3,0
STARLINK-37380,2026-114A,2026-06-03T22:00:01.999584,15.84357941,.00008809,53.1583,268.7751,66.8134,259.1607,0,U,69182,999,267,-.94448577E-2,-.1917943E-1,0
STARLINK-37089,2026-114B,2026-06-03T22:00:01.999584,15.84661795,.00008671,53.1584,268.7669,55.9833,273.8761,0,U,69183,999,267,-.94458645E-2,-.1942833E-1,0
STARLINK-37428,2026-114C,2026-06-03T22:00:01.999584,15.85325772,.00008026,53.1581,268.7595,53.7155,279.9024,0,U,69184,999,267,-.89051481E-2,-.1898369E-1,0
STARLINK-37237,2026-114D,2026-06-03T22:00:01.999584,15.85292790,.00009688,53.1579,268.7511,53.1697,284.2121,0,U,69185,999,267,-.22217664E-2,-.510725E-2,0
STARLINK-37365,2026-114E,2026-06-03T22:00:01.999584,15.85548419,.00009699,53.1578,268.7435,45.6824,295.4555,0,U,69186,999,267,-.37599883E-2,-.842429E-2,0
STARLINK-37209,2026-114F,2026-06-03T22:00:01.999584,15.86108432,.00007929,53.1578,268.7342,51.3699,294.1934,0,U,69187,999,267,-.82531795E-2,-.179736E-1,0
STARLINK-37359,2026-114G,2026-06-03T22:00:01.999584,15.86077293,.00008267,53.1579,268.7262,45.1287,304.2848,0,U,69188,999,267,-.8764807E-2,-.1933487E-1,0
STARLINK-37440,2026-114H,2026-06-03T22:00:01.999584,15.92734991,.00011853,53.1568,268.5113,54.8918,37.8249,0,U,69189,999,267,-.42281036E-2,-.1487516E-1,.63473072E-3
STARLINK-37282,2026-114J,2026-06-03T22:00:01.999584,15.85706162,.00007871,53.1581,268.7055,60.1558,299.1915,0,U,69190,999,267,-.79070271E-2,-.1703229E-1,0
STARLINK-37422,2026-114K,2026-06-03T22:00:01.999584,15.87611227,.00010585,53.1578,268.7097,39.6052,317.9388,0,U,69191,999,267,-.56279798E-2,-.1347177E-1,0
STARLINK-37424,2026-114L,2026-06-03T22:00:01.999584,15.85852095,.00009163,53.1578,268.6983,62.0487,300.8850,0,U,69192,999,267,-.78427337E-2,-.1701901E-1,0
STARLINK-36666,2026-114M,2026-06-03T22:00:01.999584,15.85999422,.00009076,53.1578,268.6908,62.0491,304.4523,0,U,69193,999,267,-.77929073E-2,-.1703198E-1,0
STARLINK-37355,2026-114N,2026-06-03T22:00:01.999584,15.86142322,.00007811,53.1579,268.6837,62.7103,307.3378,0,U,69194,999,267,-.77280506E-2,-.1701167E-1,0
STARLINK-37166,2026-114P,2026-06-03T22:00:01.999584,15.86404176,.00009525,53.1576,268.6684,62.1624,315.1481,0,U,69195,999,267,-.76532776E-2,-.1706078E-1,0
STARLINK-36933,2026-114Q,2026-06-03T22:00:01.999584,15.86273531,.00009218,53.1575,268.6762,64.3010,309.3968,0,U,69196,999,267,-.76924179E-2,-.1704037E-1,0
STARLINK-37419,2026-114R,2026-06-03T22:00:01.999584,15.86529515,.00008066,53.1577,268.6608,60.3862,320.5502,0,U,69197,999,267,-.76117736E-2,-.1707087E-1,0
STARLINK-37321,2026-114S,2026-06-03T22:00:01.999584,15.86678875,.0000802,53.1575,268.6540,60.9157,323.4593,0,U,69198,999,267,-.7542146E-2,-.1704469E-1,0
STARLINK-37406,2026-114T,2026-06-03T22:00:01.999584,15.86816528,.00010608,53.1574,268.6468,40.2480,347.6715,0,U,69199,999,267,-.75036266E-2,-.1707252E-1,0
STARLINK-37761,2026-114U,2026-06-03T22:00:01.999584,15.86956294,.00008544,53.1576,268.6394,64.6005,326.7836,0,U,69200,999,267,-.74537129E-2,-.1707479E-1,0
